OBJECT_NAME,OBJECT_ID,EPOCH,MEAN_MOTION,ECCENTRICITY,INCLINATION,RA_OF_ASC_NODE,ARG_OF_PERICENTER,MEAN_ANOMALY,EPHEMERIS_TYPE,CLASSIFICATION_TYPE,NORAD_CAT_ID,ELEMENT_SET_NO,REV_AT_EPOCH,BSTAR,MEAN_MOTION_DOT,MEAN_MOTION_DDOT
STARLINK-34901,2025-176K,2026-06-08T02:18:16.863264,15.34396270,.00012923,53.1602,91.9826,93.0894,267.0257,0,U,65207,999,4697,.12910606E-2,.43492E-3,0
STARLINK-34841,2025-176L,2026-06-08T03:00:36.410688,15.34325850,.0005801,53.1587,91.4585,37.1588,322.9815,0,U,65208,999,4698,-.7326727E-3,-.25008E-3,0
STARLINK-34976,2025-176M,2026-06-08T00:20:14.715744,15.34392232,.00014483,53.1585,92.1777,93.5994,266.5174,0,U,65209,999,4696,.8415846E-3,.28158E-3,0
STARLINK-34941,2025-176N,2026-06-08T02:15:14.733792,15.34373941,.00012204,53.1589,91.9708,94.6417,265.4725,0,U,65210,999,4697,.11606267E-2,.39009E-3,0
STARLINK-34847,2025-176P,2026-06-08T02:35:01.963104,15.30197511,.00013225,53.1568,92.7616,95.8853,264.2298,0,U,65211,999,4696,.7457388E-3,.21791E-3,0
STARLINK-34897,2025-176Q,2026-06-08T01:44:57.153408,15.34390402,.00014585,53.1598,91.8383,96.9204,263.1965,0,U,65212,999,4697,.10080361E-2,.33825E-3,0
STARLINK-34907,2025-176R,2026-06-08T02:21:18.685152,15.34391562,.00013058,53.1586,91.9938,90.5552,269.5600,0,U,65213,999,4697,.8152454E-3,.27261E-3,0
STARLINK-34511,2025-176S,2026-06-08T06:53:36.610656,15.34400060,.00011366,53.1585,91.0475,77.0490,283.0639,0,U,65214,999,4694,.88906254E-3,.29782E-3,0
STARLINK-33913,2025-176T,2026-06-08T00:24:05.103072,15.34389871,.00024931,53.1596,94.3242,90.5121,269.6167,0,U,65215,999,4693,.62836338E-3,.20907E-3,0
STARLINK-34302,2025-176U,2026-06-08T00:17:13.032096,15.34398199,.00013816,53.1587,92.1673,99.5243,260.5915,0,U,65216,999,4696,.12803971E-2,.43131E-3,0
STARLINK-34871,2025-176V,2026-06-08T02:51:28.955232,15.34392676,.00014224,53.1597,91.4134,102.7383,257.3778,0,U,65217,999,4698,.81411324E-3,.27223E-3,0
STARLINK-34833,2025-176W,2026-06-08T00:35:24.008352,15.34399068,.00012433,53.1560,92.2449,47.2089,312.9018,0,U,65218,999,4696,.8110985E-3,.27126E-3,0
STARLINK-34960,2025-176X,2026-06-08T02:36:27.913824,15.34401875,.00007203,53.1580,92.0578,90.0196,270.0890,0,U,65219,999,4697,.80253489E-3,.26837E-3,0
STARLINK-34603,2025-176Y,2026-06-08T02:57:32.384736,15.34395250,.00010814,53.1591,91.4404,103.0667,257.0456,0,U,65220,999,4698,.80309162E-3,.26851E-3,0
STARLINK-34974,2025-176Z,2026-06-08T03:12:41.232384,15.34402654,.00009528,53.1605,91.5006,84.1981,275.9131,0,U,65221,999,4698,.74404028E-3,.24848E-3,0
STARLINK-34999,2025-176AA,2026-06-08T02:33:25.751520,15.34393603,.00012627,53.1582,92.0443,76.8347,283.2796,0,U,65222,999,4697,.10336123E-2,.34701E-3,0
STARLINK-34996,2025-176AB,2026-06-08T02:30:23.874336,15.34394973,.00011519,53.1586,92.0262,63.8848,296.2273,0,U,65223,999,4697,.89447881E-3,.29961E-3,0
STARLINK-34975,2025-176AC,2026-06-08T00:26:19.939776,15.34375160,.0001321,53.1589,92.2055,59.4080,300.7053,0,U,65224,999,4696,.11021714E-2,.37017E-3,0
STARLINK-34257,2025-176AD,2026-06-08T00:32:21.915168,15.34384565,.00013467,53.1579,92.2267,80.6720,279.4434,0,U,65225,999,4690,.49103567E-3,.16242E-3,0
STARLINK-34842,2025-179A,2026-06-08T01:54:15.872832,15.05661387,.00020162,97.3876,201.4212,111.1983,248.9460,0,U,65235,999,4548,.31143482E-3,.444E-4,0
STARLINK-34938,2025-179B,2026-06-08T02:46:05.680128,15.05659935,.00021881,97.3853,201.3757,106.6757,253.4711,0,U,65236,999,4547,.37273255E-3,.5326E-4,0
STARLINK-34958,2025-179C,2026-06-08T01:34:19.150752,15.05653379,.00014984,97.3868,201.2879,115.6750,244.4632,0,U,65237,999,4556,.1207277E-2,.17406E-3,0
STARLINK-34818,2025-179D,2026-06-08T00:42:29.304576,15.05660024,.00020897,97.3879,201.3381,97.1390,263.0075,0,U,65238,999,4514,.42081298E-3,.6021E-4,0
STARLINK-34964,2025-179E,2026-06-08T01:46:17.864832,15.05657202,.00015945,97.3873,201.2755,132.3601,227.7762,0,U,65239,999,4541,.10778229E-2,.1553E-3,0
STARLINK-34953,2025-179F,2026-06-08T02:54:04.098528,15.05658028,.00017816,97.3852,201.3671,135.2228,224.9143,0,U,65240,999,4558,.4021783E-3,.5751E-4,0
STARLINK-34969,2025-179G,2026-06-08T02:34:08.158368,15.05659102,.00023961,97.3867,201.3871,92.9515,267.1986,0,U,65241,999,4542,.35039406E-3,.5003E-4,0
STARLINK-34963,2025-179H,2026-06-08T00:30:31.317120,15.05665551,.00017886,97.3876,201.3487,125.4384,234.7010,0,U,65242,999,4556,.3926259E-3,.5614E-4,0
STARLINK-34982,2025-179J,2026-06-08T03:02:02.620608,15.05657250,.00028512,97.3862,201.3600,138.6326,221.5118,0,U,65243,999,4558,.41392827E-3,.5921E-4,0
STARLINK-34990,2025-179K,2026-06-08T00:50:27.523392,15.05663042,.00016511,97.3875,201.3300,121.3021,238.8368,0,U,65244,999,4547,.50642718E-3,.7259E-4,0
STARLINK-34977,2025-179L,2026-06-08T02:50:05.825472,15.05642291,.00026043,97.3862,201.3721,94.1995,265.9530,0,U,65245,999,4539,.13291632E-2,.19168E-3,0
STARLINK-34959,2025-179M,2026-06-08T01:50:15.628992,15.05658733,.00007659,97.3841,201.2853,122.0600,238.0702,0,U,65246,999,4542,.79807355E-3,.11478E-3,0
STARLINK-34923,2025-179N,2026-06-08T01:42:18.276768,15.05666061,.00016569,97.3863,201.2818,105.3787,254.7624,0,U,65247,999,4546,.11663158E-2,.16817E-3,0
STARLINK-34962,2025-179P,2026-06-08T02:38:08.927520,15.05652498,.00017007,97.3865,201.3841,113.7240,246.4166,0,U,65248,999,4543,.37493679E-3,.5356E-4,0
STARLINK-34925,2025-179Q,2026-06-08T00:34:30.626112,15.05662397,.00017441,97.3871,201.3453,101.8197,258.3226,0,U,65249,999,4541,.27401063E-3,.3899E-4,0
STARLINK-34973,2025-179R,2026-06-08T00:22:31.661472,15.05661196,.00022098,97.3870,201.3582,97.6219,262.5259,0,U,65250,999,4540,-.2392892E-3,-.351E-4,0
STARLINK-34989,2025-179S,2026-06-08T06:49:22.031328,15.05546351,.00021468,97.3889,201.6105,101.9089,258.2379,0,U,65251,999,4562,-.42575498E-2,-.60799E-3,0
STARLINK-34961,2025-179T,2026-06-08T02:30:08.915904,15.05658167,.00022368,97.3854,201.3909,109.7643,250.3826,0,U,65252,999,4543,.40294698E-3,.5762E-4,0
STARLINK-34933,2025-179U,2026-06-08T03:06:01.446624,15.05668822,.00020526,97.3863,201.3569,112.2278,247.9167,0,U,65253,999,4542,.31300044E-3,.4464E-4,0
STARLINK-34979,2025-179V,2026-06-08T03:13:59.973888,15.05657462,.00007797,97.3865,201.3478,136.1220,224.0070,0,U,65254,999,4542,.35567166E-3,.5079E-4,0
STARLINK-34987,2025-179W,2026-06-08T02:58:03.429120,15.05657143,.00016818,97.3854,201.3633,101.5445,258.5971,0,U,65255,999,4541,.36814814E-3,.5259E-4,0
STARLINK-34971,2025-179X,2026-06-08T00:46:29.638272,15.05674342,.00017836,97.3886,201.3347,124.5649,235.5747,0,U,65256,999,4514,.58009114E-3,.8327E-4,0
STARLINK-34966,2025-179Y,2026-06-08T00:38:29.456448,15.05656104,.00008962,97.3873,201.3414,96.6103,263.5226,0,U,65257,999,4552,.49613971E-3,.7109E-4,0
STARLINK-34980,2025-179Z,2026-06-08T02:42:06.467040,15.05662339,.00018501,97.3860,201.3803,131.6762,228.4624,0,U,65258,999,4542,.55107967E-3,.7905E-4,0
STARLINK-34922,2025-184A,2026-06-08T03:28:47.350272,15.05620815,.00008428,97.3897,211.1458,137.8400,222.2892,0,U,65273,999,4491,-.82695357E-3,-.1196E-3,0
STARLINK-34904,2025-184B,2026-06-08T02:32:57.244704,15.05693318,.00015216,97.3872,211.0482,99.4488,260.6911,0,U,65274,999,4490,.71956536E-3,.10352E-3,0
STARLINK-34954,2025-184C,2026-06-08T03:00:51.229152,15.05661905,.00022479,97.3865,211.0168,114.0291,246.1171,0,U,65275,999,4490,.35569787E-3,.508E-4,0
STARLINK-34968,2025-184D,2026-06-08T03:48:42.821280,15.05654764,.00021758,97.3867,211.1277,98.9740,261.1733,0,U,65276,999,4491,.22905343E-3,.3249E-4,0
STARLINK-34935,2025-184E,2026-06-08T03:16:49.291968,15.05657292,.00026489,97.3861,211.1564,116.3596,243.7903,0,U,65277,999,4491,.3250373E-3,.4636E-4,0
STARLINK-35000,2025-184F,2026-06-08T02:44:54.372480,15.05658502,.00005914,97.3863,211.0352,131.7508,228.3770,0,U,65278,999,4490,.33751535E-3,.4816E-4,0
STARLINK-35023,2025-184G,2026-06-08T00:49:16.214880,15.05663369,.00013047,97.3875,210.9890,102.5204,257.6170,0,U,65279,999,4489,.46873855E-3,.6714E-4,0
STARLINK-35001,2025-184H,2026-06-08T03:36:45.454176,15.05643850,.00017541,97.3897,211.1412,115.8739,244.2669,0,U,65280,999,4491,-.14053475E-3,-.2085E-4,0
STARLINK-35010,2025-184J,2026-06-08T03:24:47.583360,15.05655004,.00013653,97.3863,211.1495,97.0920,263.0462,0,U,65281,999,4491,.24937682E-3,.3543E-4,0
STARLINK-35021,2025-184K,2026-06-08T03:08:50.655840,15.05657200,.00018557,97.3860,211.1641,120.0154,240.1258,0,U,65282,999,4486,.3356581E-3,.479E-4,0
STARLINK-35015,2025-184L,2026-06-08T02:52:52.922208,15.05656733,.00015949,97.3859,211.0247,112.8378,247.3018,0,U,65283,999,4490,.45061245E-3,.6451E-4,0
STARLINK-35006,2025-184M,2026-06-08T03:44:43.349856,15.05648992,.0001617,97.3863,211.1323,98.6120,261.5291,0,U,65284,999,4491,.4611123E-3,.6601E-4,0
STARLINK-34995,2025-184N,2026-06-08T02:28:57.451872,15.05664830,.0001348,97.3872,211.0491,98.6127,261.5253,0,U,65285,999,4490,.54380333E-3,.78E-4,0
STARLINK-35048,2025-184P,2026-06-08T03:52:41.998944,15.05644151,.00015988,97.3888,211.1217,136.0899,224.0456,0,U,65286,999,4486,-.61469493E-3,-.8914E-4,0
STARLINK-35007,2025-184Q,2026-06-08T02:40:55.164576,15.05660119,.00015133,97.3862,211.0372,107.6367,252.5025,0,U,65287,999,4484,.4490059E-3,.6428E-4,0
STARLINK-35018,2025-184R,2026-06-08T03:32:45.870432,15.05667690,.00029301,97.3857,211.1471,106.4446,253.7104,0,U,65288,999,4491,.4678513E-3,.6703E-4,0
STARLINK-34845,2025-184S,2026-06-08T03:20:48.492960,15.05656533,.00025087,97.3859,211.1535,99.8086,260.3425,0,U,65289,999,4491,.28400502E-3,.4043E-4,0
STARLINK-34984,2025-184T,2026-06-08T03:40:44.212800,15.05655221,.0001845,97.3852,211.1373,106.3303,253.8127,0,U,65290,999,4491,.19846602E-3,.2807E-4,0
STARLINK-35002,2025-184U,2026-06-08T02:56:52.003104,15.05657905,.00015115,97.3860,211.0211,95.1444,264.9956,0,U,65291,999,4490,.38485811E-3,.5501E-4,0
STARLINK-35017,2025-184V,2026-06-08T03:12:51.016320,15.05636139,.00021652,97.3868,211.1611,99.4557,260.6915,0,U,65292,999,4486,.29382523E-3,.4183E-4,0
STARLINK-34951,2025-184W,2026-06-08T00:45:17.023392,15.05661133,.0001271,97.3867,210.9929,122.9342,237.2008,0,U,65293,999,4489,.530293E-3,.7604E-4,0
